start=new Date('2022-08-24T00:00:00.000Z').valueOf();
sats=[{"SITE":"AFETR","INCLINATION":"97.5137","SEMIMAJOR_AXIS":"6936.096","BSTAR":"-0.00217540000000","MEAN_MOTION_DDOT":"0.0000000000000","TIME_SYSTEM":"UTC","MEAN_ELEMENT_THEORY":"SGP4","CENTER_NAME":"EARTH","ELEMENT_SET_NO":"999","REF_FRAME":"TEME","PERIAPSIS":"556.766","APOAPSIS":"559.155","CLASSIFICATION_TYPE":"U","OBJECT_ID":"2021-059A","OBJECT_NAME":"STARLINK-3003","RA_OF_ASC_NODE":"4.4630","COUNTRY_CODE":"US","MEAN_ANOMALY":"266.3295","TLE_LINE2":"2 48879  97.5137   4.4630 0001722 129.0126 266.3295 15.02900278 64647","MEAN_MOTION_DOT":"-0.00029112","OBJECT_TYPE":"PAYLOAD","FILE":"3545141","EPHEMERIS_TYPE":"0","MEAN_MOTION":"15.02900278","ECCENTRICITY":"0.00017220","PERIOD":"95.815","DECAY_DATE":null,"EPOCH":"2022-08-23T22:00:01.999584","NORAD_CAT_ID":"48879","REV_AT_EPOCH":"6464","RCS_SIZE":"LARGE","TLE_LINE1":"1 48879U 21059A   22235.91668981 -.00029112  00000-0 -21754-2 0  9993","LAUNCH_DATE":"2021-06-30","GP_ID":"210827531","ARG_OF_PERICENTER":"129.0126"},{"ECCENTRICITY":"0.00017050","PERIOD":"95.814","DECAY_DATE":null,"NORAD_CAT_ID":"48880","EPOCH":"2022-08-23T22:00:01.999584","REV_AT_EPOCH":"6464","RCS_SIZE":"LARGE","TLE_LINE1":"1 48880U 21059B   22235.91668981 -.00029048  00000-0 -21699-2 0  9991","LAUNCH_DATE":"2021-06-30","GP_ID":"210827868","ARG_OF_PERICENTER":"128.3512","COUNTRY_CODE":"US","TLE_LINE2":"2 48880  97.5159   4.4690 0001705 128.3512 276.2791 15.02913044 64647","MEAN_ANOMALY":"276.2791","MEAN_MOTION_DOT":"-0.00029048","OBJECT_TYPE":"PAYLOAD","FILE":"3545175","EPHEMERIS_TYPE":"0","MEAN_MOTION":"15.02913044","MEAN_ELEMENT_THEORY":"SGP4","CENTER_NAME":"EARTH","ELEMENT_SET_NO":"999","REF_FRAME":"TEME","PERIAPSIS":"556.739","APOAPSIS":"559.104","CLASSIFICATION_TYPE":"U","OBJECT_ID":"2021-059B","OBJECT_NAME":"STARLINK-3004","RA_OF_ASC_NODE":"4.4690","SITE":"AFETR","INCLINATION":"97.5159","SEMIMAJOR_AXIS":"6936.056","BSTAR":"-0.00216990000000","MEAN_MOTION_DDOT":"0.0000000000000","TIME_SYSTEM":"UTC"},{"OBJECT_ID":"2021-059C","OBJECT_NAME":"STARLINK-3005","RA_OF_ASC_NODE":"4.4975","CLASSIFICATION_TYPE":"U","REF_FRAME":"TEME","APOAPSIS":"559.070","PERIAPSIS":"556.795","MEAN_ELEMENT_THEORY":"SGP4","CENTER_NAME":"EARTH","ELEMENT_SET_NO":"999","TIME_SYSTEM":"UTC","SEMIMAJOR_AXIS":"6936.067","BSTAR":"-0.00226380000000","MEAN_MOTION_DDOT":"0.0000000000000","SITE":"AFETR","INCLINATION":"97.5123","ARG_OF_PERICENTER":"134.1260","GP_ID":"210829188","RCS_SIZE":"LARGE","TLE_LINE1":"1 48881U 21059C   22235.91668981 -.00030295  00000-0 -22638-2 0  9992","LAUNCH_DATE":"2021-06-30","DECAY_DATE":null,"REV_AT_EPOCH":"6465","NORAD_CAT_ID":"48881","EPOCH":"2022-08-23T22:00:01.999584","ECCENTRICITY":"0.00016400","PERIOD":"95.814","EPHEMERIS_TYPE":"0","MEAN_MOTION":"15.02909532","TLE_LINE2":"2 48881  97.5123   4.4975 0001640 134.1260 293.5847 15.02909532 64650","MEAN_ANOMALY":"293.5847","MEAN_MOTION_DOT":"-0.00030295","OBJECT_TYPE":"PAYLOAD","FILE":"3545215","COUNTRY_CODE":"US"},{"GP_ID":"210861729","ARG_OF_PERICENTER":"252.7860","RCS_SIZE":"LARGE","LAUNCH_DATE":"2021-09-14","TLE_LINE1":"1 49131U 21082B   22235.81870617 -.00001260  00000-0 -97823-4 0  9997","DECAY_DATE":null,"EPOCH":"2022-08-23T19:38:56.213088","REV_AT_EPOCH":"5315","NORAD_CAT_ID":"49131","ECCENTRICITY":"0.00033300","PERIOD":"96.107","MEAN_MOTION":"14.98324547","EPHEMERIS_TYPE":"0","MEAN_MOTION_DOT":"-0.00001260","TLE_LINE2":"2 49131  69.9978 276.7484 0003330 252.7860 107.2934 14.98324547 53152","MEAN_ANOMALY":"107.2934","FILE":"3545624","OBJECT_TYPE":"PAYLOAD","COUNTRY_CODE":"US","RA_OF_ASC_NODE":"276.7484","OBJECT_NAME":"STARLINK-3096","OBJECT_ID":"2021-082B","CLASSIFICATION_TYPE":"U","APOAPSIS":"574.389","PERIAPSIS":"569.760","REF_FRAME":"TEME","CENTER_NAME":"EARTH","MEAN_ELEMENT_THEORY":"SGP4","ELEMENT_SET_NO":"999","TIME_SYSTEM":"UTC","SEMIMAJOR_AXIS":"6950.210","MEAN_MOTION_DDOT":"0.0000000000000","BSTAR":"-0.00009782300000","SITE":"AFWTR","INCLINATION":"69.9978"},{"RA_OF_ASC_NODE":"317.0005","OBJECT_NAME":"STARLINK-3090","OBJECT_ID":"2021-082C","CLASSIFICATION_TYPE":"U","APOAPSIS":"574.358","PERIAPSIS":"569.778","REF_FRAME":"TEME","ELEMENT_SET_NO":"999","CENTER_NAME":"EARTH","MEAN_ELEMENT_THEORY":"SGP4","TIME_SYSTEM":"UTC","MEAN_MOTION_DDOT":"0.0000000000000","BSTAR":"-0.00002502900000","SEMIMAJOR_AXIS":"6950.203","INCLINATION":"69.9996","SITE":"AFWTR","GP_ID":"210861983","ARG_OF_PERICENTER":"254.8956","LAUNCH_DATE":"2021-09-14","TLE_LINE1":"1 49132U 21082C   22235.71797351 -.00000392  00000-0 -25029-4 0  9994","RCS_SIZE":"LARGE","REV_AT_EPOCH":"5215","EPOCH":"2022-08-23T17:13:52.911264","NORAD_CAT_ID":"49132","DECAY_DATE":null,"PERIOD":"96.107","ECCENTRICITY":"0.00032950","MEAN_MOTION":"14.98326837","EPHEMERIS_TYPE":"0","OBJECT_TYPE":"PAYLOAD","FILE":"3545624","MEAN_MOTION_DOT":"-0.00000392","TLE_LINE2":"2 49132  69.9996 317.0005 0003295 254.8956 105.1839 14.98326837 52154","MEAN_ANOMALY":"105.1839","COUNTRY_CODE":"US"},{"ECCENTRICITY":"0.00034270","PERIOD":"96.107","DECAY_DATE":null,"REV_AT_EPOCH":"5215","NORAD_CAT_ID":"49133","EPOCH":"2022-08-23T17:07:00.294240","RCS_SIZE":"LARGE","LAUNCH_DATE":"2021-09-14","TLE_LINE1":"1 49133U 21082D   22235.71319785  .00001236  00000-0  11139-3 0  9998","GP_ID":"210862226","ARG_OF_PERICENTER":"249.1733","COUNTRY_CODE":"US","MEAN_MOTION_DOT":"0.00001236","MEAN_ANOMALY":"110.9059","TLE_LINE2":"2 49133  70.0002 317.0267 0003427 249.1733 110.9059 14.98331933 52154","FILE":"3545624","OBJECT_TYPE":"PAYLOAD","MEAN_MOTION":"14.98331933","EPHEMERIS_TYPE":"0","CENTER_NAME":"EARTH","MEAN_ELEMENT_THEORY":"SGP4","ELEMENT_SET_NO":"999","PERIAPSIS":"569.670","APOAPSIS":"574.434","REF_FRAME":"TEME","CLASSIFICATION_TYPE":"U","RA_OF_ASC_NODE":"317.0267","OBJECT_ID":"2021-082D","OBJECT_NAME":"STARLINK-3077","SITE":"AFWTR","INCLINATION":"70.0002","SEMIMAJOR_AXIS":"6950.187","MEAN_MOTION_DDOT":"0.0000000000000","BSTAR":"0.00011139000000","TIME_SYSTEM":"UTC"},{"TIME_SYSTEM":"UTC","SEMIMAJOR_AXIS":"6950.208","BSTAR":"-0.00003460000000","MEAN_MOTION_DDOT":"0.0000000000000","SITE":"AFWTR","INCLINATION":"70.0012","OBJECT_ID":"2021-082E","OBJECT_NAME":"STARLINK-3078","RA_OF_ASC_NODE":"317.0413","CLASSIFICATION_TYPE":"U","REF_FRAME":"TEME","APOAPSIS":"574.236","PERIAPSIS":"569.910","MEAN_ELEMENT_THEORY":"SGP4","CENTER_NAME":"EARTH","ELEMENT_SET_NO":"999","EPHEMERIS_TYPE":"0","MEAN_MOTION":"14.98325161","TLE_LINE2":"2 49134  70.0012 317.0413 0003112 257.9305 102.1506 14.98325161 53351","MEAN_ANOMALY":"102.1506","MEAN_MOTION_DOT":"-0.00000506","OBJECT_TYPE":"PAYLOAD","FILE":"3545624","COUNTRY_CODE":"US","GP_ID":"210860982","ARG_OF_PERICENTER":"257.9305","RCS_SIZE":"LARGE","TLE_LINE1":"1 49134U 21082E   22235.70843477 -.00000506  00000-0 -34600-4 0  9998","LAUNCH_DATE":"2021-09-14","DECAY_DATE":null,"EPOCH":"2022-08-23T17:00:08.764128","NORAD_CAT_ID":"49134","REV_AT_EPOCH":"5335","ECCENTRICITY":"0.00031120","PERIOD":"96.107"},{"CLASSIFICATION_TYPE":"U","RA_OF_ASC_NODE":"276.9274","OBJECT_NAME":"STARLINK-3073","OBJECT_ID":"2021-082F","CENTER_NAME":"EARTH","MEAN_ELEMENT_THEORY":"SGP4","ELEMENT_SET_NO":"999","APOAPSIS":"579.147","PERIAPSIS":"574.945","REF_FRAME":"TEME","TIME_SYSTEM":"UTC","SITE":"AFWTR","INCLINATION":"69.9989","SEMIMAJOR_AXIS":"6955.181","MEAN_MOTION_DDOT":"0.0000000000000","BSTAR":"0.00006395000000","RCS_SIZE":"LARGE","LAUNCH_DATE":"2021-09-14","TLE_LINE1":"1 49135U 21082F   22235.63485373  .00000640  00000-0  63950-4 0  9995","GP_ID":"210861230","ARG_OF_PERICENTER":"260.0810","ECCENTRICITY":"0.00030210","PERIOD":"96.210","DECAY_DATE":null,"REV_AT_EPOCH":"5314","EPOCH":"2022-08-23T15:14:11.362272","NORAD_CAT_ID":"49135","MEAN_MOTION_DOT":"0.00000640","TLE_LINE2":"2 49135  69.9989 276.9274 0003021 260.0810 100.0007 14.96718382 53144","MEAN_ANOMALY":"100.0007","FILE":"3545624","OBJECT_TYPE":"PAYLOAD","MEAN_MOTION":"14.96718382","EPHEMERIS_TYPE":"0","COUNTRY_CODE":"US"},{"TLE_LINE1":"1 49136U 21082G   22235.73833563 -.00000965  00000-0 -76268-4 0  9993","LAUNCH_DATE":"2021-09-14","RCS_SIZE":"LARGE","GP_ID":"210862483","ARG_OF_PERICENTER":"247.2748","PERIOD":"96.210","ECCENTRICITY":"0.00034070","EPOCH":"2022-08-23T17:43:12.198432","NORAD_CAT_ID":"49136","REV_AT_EPOCH":"5266","DECAY_DATE":null,"FILE":"3545624","OBJECT_TYPE":"PAYLOAD","TLE_LINE2":"2 49136  69.9996 296.9275 0003407 247.2748 112.8050 14.96723417 52661","MEAN_ANOMALY":"112.8050","MEAN_MOTION_DOT":"-0.00000965","EPHEMERIS_TYPE":"0","MEAN_MOTION":"14.96723417","COUNTRY_CODE":"US","CLASSIFICATION_TYPE":"U","OBJECT_NAME":"STARLINK-3084","OBJECT_ID":"2021-082G","RA_OF_ASC_NODE":"296.9275","ELEMENT_SET_NO":"999","MEAN_ELEMENT_THEORY":"SGP4","CENTER_NAME":"EARTH","REF_FRAME":"TEME","PERIAPSIS":"574.661","APOAPSIS":"579.400","TIME_SYSTEM":"UTC","INCLINATION":"69.9996","SITE":"AFWTR","BSTAR":"-0.00007626800000","MEAN_MOTION_DDOT":"0.0000000000000","SEMIMAJOR_AXIS":"6955.166"},{"SITE":"AFWTR","INCLINATION":"70.0001","SEMIMAJOR_AXIS":"6955.198","MEAN_MOTION_DDOT":"0.0000000000000","BSTAR":"0.00010324000000","TIME_SYSTEM":"UTC","CENTER_NAME":"EARTH","MEAN_ELEMENT_THEORY":"SGP4","ELEMENT_SET_NO":"999","APOAPSIS":"579.411","PERIAPSIS":"574.716","REF_FRAME":"TEME","CLASSIFICATION_TYPE":"U","RA_OF_ASC_NODE":"297.1220","OBJECT_NAME":"STARLINK-3055","OBJECT_ID":"2021-082H","COUNTRY_CODE":"US","MEAN_MOTION_DOT":"0.00001090","TLE_LINE2":"2 49137  70.0001 297.1220 0003375 251.6862 108.3929 14.96712878 52647","MEAN_ANOMALY":"108.3929","FILE":"3545624","OBJECT_TYPE":"PAYLOAD","MEAN_MOTION":"14.96712878","EPHEMERIS_TYPE":"0","ECCENTRICITY":"0.00033750","PERIOD":"96.211","DECAY_DATE":null,"NORAD_CAT_ID":"49137","EPOCH":"2022-08-23T16:02:09.290976","REV_AT_EPOCH":"5264","RCS_SIZE":"LARGE","LAUNCH_DATE":"2021-09-14","TLE_LINE1":"1 49137U 21082H   22235.66816309  .00001090  00000-0  10324-3 0  9993","GP_ID":"210862726","ARG_OF_PERICENTER":"251.6862"}];
